[{"OBJECT_NAME":"OBJECT D","OBJECT_ID":"2024-203D","EPOCH":"2026-03-09T23:01:14.628576","MEAN_MOTION":15.25394324,"ECCENTRICITY":0.00105281,"INCLINATION":97.4343,"RA_OF_ASC_NODE":139.6527,"ARG_OF_PERICENTER":340.1906,"MEAN_ANOMALY":19.8921,"EPHEMERIS_TYPE":0,"CLASSIFICATION_TYPE":"U","NORAD_CAT_ID":61872,"ELEMENT_SET_NO":999,"REV_AT_EPOCH":7378,"BSTAR":0.00059366578,"MEAN_MOTION_DOT":0.00014956,"MEAN_MOTION_DDOT":0},{"OBJECT_NAME":"LEMUR-2-AFFIE-WAUWIE","OBJECT_ID":"2025-248C","EPOCH":"2026-03-09T21:49:29.414208","MEAN_MOTION":15.23594811,"ECCENTRICITY":0.00085622,"INCLINATION":45.4084,"RA_OF_ASC_NODE":291.4282,"ARG_OF_PERICENTER":229.4361,"MEAN_ANOMALY":130.5782,"EPHEMERIS_TYPE":0,"CLASSIFICATION_TYPE":"U","NORAD_CAT_ID":66295,"ELEMENT_SET_NO":999,"REV_AT_EPOCH":1943,"BSTAR":0.00079981928,"MEAN_MOTION_DOT":0.00019264,"MEAN_MOTION_DDOT":0}]
